[{"OBJECT_NAME":"ISS OBJECT XT","OBJECT_ID":"1998-067XT","EPOCH":"2026-04-18T13:15:24.158016","MEAN_MOTION":15.881813,"ECCENTRICITY":0.0011409,"INCLINATION":51.6202,"RA_OF_ASC_NODE":219.7528,"ARG_OF_PERICENTER":328.8979,"MEAN_ANOMALY":31.1349,"EPHEMERIS_TYPE":0,"CLASSIFICATION_TYPE":"U","NORAD_CAT_ID":66907,"ELEMENT_SET_NO":999,"REV_AT_EPOCH":2147,"BSTAR":0.0016654,"MEAN_MOTION_DOT":0.00495385,"MEAN_MOTION_DDOT":0},{"OBJECT_NAME":"ISS OBJECT XU","OBJECT_ID":"1998-067XU","EPOCH":"2026-04-18T13:02:23.259264","MEAN_MOTION":15.88666942,"ECCENTRICITY":0.0011223,"INCLINATION":51.6202,"RA_OF_ASC_NODE":219.6891,"ARG_OF_PERICENTER":327.7702,"MEAN_ANOMALY":32.2616,"EPHEMERIS_TYPE":0,"CLASSIFICATION_TYPE":"U","NORAD_CAT_ID":66908,"ELEMENT_SET_NO":999,"REV_AT_EPOCH":2147,"BSTAR":0.0016457,"MEAN_MOTION_DOT":0.00471816,"MEAN_MOTION_DDOT":9.3643e-5},{"OBJECT_NAME":"SILVERSAT","OBJECT_ID":"1998-067XV","EPOCH":"2026-04-18T13:28:37.830144","MEAN_MOTION":16.05774695,"ECCENTRICITY":0.0014801,"INCLINATION":51.6125,"RA_OF_ASC_NODE":216.7446,"ARG_OF_PERICENTER":334.6182,"MEAN_ANOMALY":25.4102,"EPHEMERIS_TYPE":0,"CLASSIFICATION_TYPE":"U","NORAD_CAT_ID":66909,"ELEMENT_SET_NO":999,"REV_AT_EPOCH":2151,"BSTAR":0.0020316,"MEAN_MOTION_DOT":0.01496311,"MEAN_MOTION_DDOT":0.0014209},{"OBJECT_NAME":"ISS OBJECT XW","OBJECT_ID":"1998-067XW","EPOCH":"2026-04-18T14:12:10.974816","MEAN_MOTION":15.84493607,"ECCENTRICITY":0.0010259,"INCLINATION":51.6188,"RA_OF_ASC_NODE":220.0128,"ARG_OF_PERICENTER":322.9849,"MEAN_ANOMALY":37.0445,"EPHEMERIS_TYPE":0,"CLASSIFICATION_TYPE":"U","NORAD_CAT_ID":66910,"ELEMENT_SET_NO":999,"REV_AT_EPOCH":2147,"BSTAR":0.0015688,"MEAN_MOTION_DOT":0.00384682,"MEAN_MOTION_DDOT":0},{"OBJECT_NAME":"ISS OBJECT XY","OBJECT_ID":"1998-067XY","EPOCH":"2026-04-18T13:00:30.045888","MEAN_MOTION":15.7242939,"ECCENTRICITY":0.0007088,"INCLINATION":51.6238,"RA_OF_ASC_NODE":224.2453,"ARG_OF_PERICENTER":319.352,"MEAN_ANOMALY":40.6948,"EPHEMERIS_TYPE":0,"CLASSIFICATION_TYPE":"U","NORAD_CAT_ID":66912,"ELEMENT_SET_NO":999,"REV_AT_EPOCH":2140,"BSTAR":0.0011287,"MEAN_MOTION_DOT":0.00156005,"MEAN_MOTION_DDOT":0},{"OBJECT_NAME":"KNACKSAT-2","OBJECT_ID":"1998-067XZ","EPOCH":"2026-04-18T14:38:50.875584","MEAN_MOTION":15.55081702,"ECCENTRICITY":0.001179,"INCLINATION":51.6304,"RA_OF_ASC_NODE":232.9849,"ARG_OF_PERICENTER":336.7382,"MEAN_ANOMALY":23.3074,"EPHEMERIS_TYPE":0,"CLASSIFICATION_TYPE":"U","NORAD_CAT_ID":67683,"ELEMENT_SET_NO":999,"REV_AT_EPOCH":1099,"BSTAR":0.00065146,"MEAN_MOTION_DOT":0.00044544,"MEAN_MOTION_DDOT":0},{"OBJECT_NAME":"CORAL","OBJECT_ID":"1998-067YA","EPOCH":"2026-04-18T14:23:45.985056","MEAN_MOTION":15.61340927,"ECCENTRICITY":0.0015578,"INCLINATION":51.6288,"RA_OF_ASC_NODE":231.4118,"ARG_OF_PERICENTER":329.1868,"MEAN_ANOMALY":30.821,"EPHEMERIS_TYPE":0,"CLASSIFICATION_TYPE":"U","NORAD_CAT_ID":67684,"ELEMENT_SET_NO":999,"REV_AT_EPOCH":1101,"BSTAR":0.0011841,"MEAN_MOTION_DOT":0.00104145,"MEAN_MOTION_DDOT":0},{"OBJECT_NAME":"GXIBA-1","OBJECT_ID":"1998-067YB","EPOCH":"2026-04-18T15:44:12.486048","MEAN_MOTION":15.55840305,"ECCENTRICITY":0.0013769,"INCLINATION":51.63,"RA_OF_ASC_NODE":232.5384,"ARG_OF_PERICENTER":333.8098,"MEAN_ANOMALY":26.2195,"EPHEMERIS_TYPE":0,"CLASSIFICATION_TYPE":"U","NORAD_CAT_ID":67685,"ELEMENT_SET_NO":999,"REV_AT_EPOCH":1100,"BSTAR":0.00068906,"MEAN_MOTION_DOT":0.0004857,"MEAN_MOTION_DDOT":0},{"OBJECT_NAME":"UITMSAT-2","OBJECT_ID":"1998-067YC","EPOCH":"2026-04-18T14:59:38.834592","MEAN_MOTION":15.57278933,"ECCENTRICITY":0.0010594,"INCLINATION":51.6301,"RA_OF_ASC_NODE":232.3327,"ARG_OF_PERICENTER":313.2925,"MEAN_ANOMALY":46.7183,"EPHEMERIS_TYPE":0,"CLASSIFICATION_TYPE":"U","NORAD_CAT_ID":67686,"ELEMENT_SET_NO":999,"REV_AT_EPOCH":1100,"BSTAR":0.00085865,"MEAN_MOTION_DOT":0.00064016,"MEAN_MOTION_DDOT":0},{"OBJECT_NAME":"HMU-SAT2","OBJECT_ID":"1998-067YD","EPOCH":"2026-04-18T12:51:50.287680","MEAN_MOTION":15.55512923,"ECCENTRICITY":0.0009959,"INCLINATION":51.6315,"RA_OF_ASC_NODE":233.2434,"ARG_OF_PERICENTER":314.7858,"MEAN_ANOMALY":45.2323,"EPHEMERIS_TYPE":0,"CLASSIFICATION_TYPE":"U","NORAD_CAT_ID":67687,"ELEMENT_SET_NO":999,"REV_AT_EPOCH":1090,"BSTAR":0.00071183,"MEAN_MOTION_DOT":0.00049492,"MEAN_MOTION_DDOT":0},{"OBJECT_NAME":"LEOPARD","OBJECT_ID":"1998-067YE","EPOCH":"2026-04-18T13:47:30.725088","MEAN_MOTION":15.56614596,"ECCENTRICITY":0.0010188,"INCLINATION":51.63,"RA_OF_ASC_NODE":232.7496,"ARG_OF_PERICENTER":313.7096,"MEAN_ANOMALY":46.305,"EPHEMERIS_TYPE":0,"CLASSIFICATION_TYPE":"U","NORAD_CAT_ID":67688,"ELEMENT_SET_NO":999,"REV_AT_EPOCH":1091,"BSTAR":0.00070845,"MEAN_MOTION_DOT":0.00051339,"MEAN_MOTION_DDOT":0},{"OBJECT_NAME":"CREW DRAGON 12","OBJECT_ID":"2026-031A","EPOCH":"2026-04-18T18:43:30.645984","MEAN_MOTION":15.48819285,"ECCENTRICITY":0.0006603,"INCLINATION":51.6329,"RA_OF_ASC_NODE":234.1171,"ARG_OF_PERICENTER":323.1571,"MEAN_ANOMALY":36.8962,"EPHEMERIS_TYPE":0,"CLASSIFICATION_TYPE":"U","NORAD_CAT_ID":67796,"ELEMENT_SET_NO":999,"REV_AT_EPOCH":56261,"BSTAR":0.00015594,"MEAN_MOTION_DOT":8.099e-5,"MEAN_MOTION_DDOT":0},{"OBJECT_NAME":"PROGRESS-MS 33","OBJECT_ID":"2026-058A","EPOCH":"2026-04-18T18:43:30.645984","MEAN_MOTION":15.48819285,"ECCENTRICITY":0.0006603,"INCLINATION":51.6329,"RA_OF_ASC_NODE":234.1171,"ARG_OF_PERICENTER":323.1571,"MEAN_ANOMALY":36.8962,"EPHEMERIS_TYPE":0,"CLASSIFICATION_TYPE":"U","NORAD_CAT_ID":68319,"ELEMENT_SET_NO":999,"REV_AT_EPOCH":412,"BSTAR":0.00015594,"MEAN_MOTION_DOT":8.099e-5,"MEAN_MOTION_DDOT":0},{"OBJECT_NAME":"CYGNUS NG-24","OBJECT_ID":"2026-079A","EPOCH":"2026-04-18T12:31:51.513600","MEAN_MOTION":15.48816702,"ECCENTRICITY":0.00065848,"INCLINATION":51.6329,"RA_OF_ASC_NODE":235.3932,"ARG_OF_PERICENTER":322.2115,"MEAN_ANOMALY":37.8411,"EPHEMERIS_TYPE":0,"CLASSIFICATION_TYPE":"U","NORAD_CAT_ID":68689,"ELEMENT_SET_NO":999,"REV_AT_EPOCH":105,"BSTAR":0.00016613503,"MEAN_MOTION_DOT":8.659e-5,"MEAN_MOTION_DDOT":0}]
