ISS OBJECT XT           
1 66907U 98067XT  26108.55236294  .00495385  00000+0  16654-2 0  9998
2 66907  51.6202 219.7528 0011409 328.8979  31.1349 15.88181300 21471
ISS OBJECT XU           
1 66908U 98067XU  26108.54332476  .00471816  93643-4  16457-2 0  9991
2 66908  51.6202 219.6891 0011223 327.7702  32.2616 15.88666942 21479
SILVERSAT               
1 66909U 98067XV  26108.56154896  .01496311  14209-2  20316-2 0  9998
2 66909  51.6125 216.7446 0014801 334.6182  25.4102 16.05774695 21516
ISS OBJECT XW           
1 66910U 98067XW  26108.59179369  .00384682  00000+0  15688-2 0  9998
2 66910  51.6188 220.0128 0010259 322.9849  37.0445 15.84493607 21476
ISS OBJECT XY           
1 66912U 98067XY  26108.54201442  .00156005  00000+0  11287-2 0  9990
2 66912  51.6238 224.2453 0007088 319.3520  40.6948 15.72429390 21409
KNACKSAT-2              
1 67683U 98067XZ  26108.61031106  .00044544  00000+0  65146-3 0  9990
2 67683  51.6304 232.9849 0011790 336.7382  23.3074 15.55081702 10990
CORAL                   
1 67684U 98067YA  26108.59983779  .00104145  00000+0  11841-2 0  9996
2 67684  51.6288 231.4118 0015578 329.1868  30.8210 15.61340927 11011
GXIBA-1                 
1 67685U 98067YB  26108.65570007  .00048570  00000+0  68906-3 0  9994
2 67685  51.6300 232.5384 0013769 333.8098  26.2195 15.55840305 11009
UITMSAT-2               
1 67686U 98067YC  26108.62475503  .00064016  00000+0  85865-3 0  9993
2 67686  51.6301 232.3327 0010594 313.2925  46.7183 15.57278933 11008
HMU-SAT2                
1 67687U 98067YD  26108.53599870  .00049492  00000+0  71183-3 0  9997
2 67687  51.6315 233.2434 0009959 314.7858  45.2323 15.55512923 10903
LEOPARD                 
1 67688U 98067YE  26108.57466117  .00051339  00000+0  70845-3 0  9996
2 67688  51.6300 232.7496 0010188 313.7096  46.3050 15.56614596 10919
CREW DRAGON 12          
1 67796U 26031A   26108.78021581  .00008099  00000+0  15594-3 0  9998
2 67796  51.6329 234.1171 0006603 323.1571  36.8962 15.48819285562614
PROGRESS-MS 33          
1 68319U 26058A   26108.78021581  .00008099  00000+0  15594-3 0  9999
2 68319  51.6329 234.1171 0006603 323.1571  36.8962 15.48819285  4123
CYGNUS NG-24            
1 68689U 26079A   26108.52212400  .00008659  00000+0  16614-3 0  9992
2 68689  51.6329 235.3932 0006584 322.2115  37.8411 15.48816702  1053
